{"spkid": "54245582", "covariance": {"epoch": "2459702.5", "data": [["7.347825192269679E-14", "-5.117663973811355E-14", "-3.884006761516485E-12", "-2.825493366503586E-11", "2.193041254933317E-11", "9.828923626878015E-12"], ["-5.117663973811355E-14", "3.564642325441886E-14", "2.718425228188101E-12", "1.971230649363174E-11", "-1.529620965156405E-11", "-6.856232782084863E-12"], ["-3.884006761516485E-12", "2.718425228188101E-12", "1.543026083984221E-9", "3.085975332122762E-9", "-1.843708651185711E-9", "-1.024457274429856E-9"], ["-2.825493366503586E-11", "1.971230649363174E-11", "3.085975332122762E-9", "2.074120923498448E-8", "-1.716618803661512E-8", "-5.999050375654157E-9"], ["2.193041254933317E-11", "-1.529620965156405E-11", "-1.843708651185711E-9", "-1.716618803661512E-8", "1.476393089861195E-8", "4.792830148384516E-9"], ["9.828923626878015E-12", "-6.856232782084863E-12", "-1.024457274429856E-9", "-5.999050375654157E-9", "4.792830148384516E-9", "1.874519019443824E-9"]], "elements": [{"units": null, "title": "eccentricity", "value": ".5398727236008973", "name": "e", "sigma": 2.71068721771245e-07, "label": "e"}, {"label": "q", "sigma": 1.8880260393972e-07, "name": "q", "units": "au", "value": ".3165746929903533", "title": "perihelion distance"}, {"label": "tp", "units": "TDB", "title": "time of perihelion passage", "value": "2459738.034251082222", "name": "tp", "sigma": 3.92813706988977e-05}, {"title": "longitude of the ascending node", "value": "346.4027118606732", "units": "deg", "name": "om", "sigma": 0.000144018086485637, "label": "node"}, {"label": "peri", "name": "w", "sigma": 0.000121506917081341, "title": "argument of perihelion", "value": "339.4228073123585", "units": "deg"}, {"name": "i", "sigma": 4.32957159479298e-05, "units": "deg", "title": "inclination", "value": "5.497145536635507", "label": "i"}], "labels": ["e", "q", "tp", "node", "peri", "i"]}, "elements": [{"label": "e", "title": "eccentricity", "value": ".5398611871807411", "units": null, "sigma": "2.7101E-7", "name": "e"}, {"value": ".6880318372802686", "title": "semi-major axis", "units": "au", "sigma": "5.7937E-9", "name": "a", "label": "a"}, {"label": "q", "title": "perihelion distance", "value": ".3165901527879963", "units": "au", "name": "q", "sigma": "1.8863E-7"}, {"name": "i", "sigma": "4.325E-5", "title": "inclination; angle with respect to x-y ecliptic plane", "value": "5.50529843405183", "units": "deg", "label": "i"}, {"label": "node", "name": "om", "sigma": ".0001427", "title": "longitude of the ascending node", "value": "346.301492937448", "units": "deg"}, {"title": "argument of perihelion", "value": "339.4930230106997", "units": "deg", "sigma": ".00012039", "name": "w", "label": "peri"}, {"label": "M", "sigma": "8.751E-5", "name": "ma", "title": "mean anomaly", "value": "5.751270896080738", "units": "deg"}, {"name": "tp", "sigma": "5.0643E-5", "title": "time of perihelion passage", "value": "2461197.169782853982", "units": "TDB", "label": "tp"}, {"label": "period", "sigma": "2.633E-6", "name": "per", "units": "d", "value": "208.4544780152175", "title": "sidereal orbital period"}, {"sigma": "2.1814E-8", "name": "n", "units": "deg/d", "title": "mean motion", "value": "1.726995761509712", "label": "n"}, {"name": "ad", "sigma": "8.9215E-9", "units": "au", "title": "aphelion distance", "value": "1.059473521772541", "label": "Q"}], "epoch": "2461200.5"}